NORAD_CAT_ID,OBJECT_NAME,OBJECT_TYPE,EPOCH,MEAN_MOTION,ECCENTRICITY,INCLINATION,RA_OF_ASC_NODE,ARG_OF_PERICENTER,MEAN_ANOMALY,BSTAR,MEAN_MOTION_DOT,MEAN_MOTION_DDOT,TLE_LINE0,TLE_LINE1,TLE_LINE2,SEMIMAJOR_AXIS,PERIOD,APOGEE,PERIGEE,DECAYED
53588.0,STARLINK-4691,PAYLOAD,2024-02-29 22:18:32,15.08833655,9.63e-05,53.2189,320.7923,94.2821,265.8281,0.00026688,3.961e-05,0.0,0 STARLINK-4691,1 53588U 22104A   24060.92954079  .00003961  00000-0  26688-3 0  9997,2 53588  53.2189 320.7923 0000963  94.2821 265.8281 15.08833655 84568,6917.9,95.438,540.431,539.099,0.0
53588.0,STARLINK-4691,PAYLOAD,2024-03-01 03:04:41,15.08845843,0.0001527,53.2183,319.899,114.4648,245.6504,0.00017129,2.44e-05,0.0,0 STARLINK-4691,1 53588U 22104A   24061.12825507  .00002440  00000-0  17129-3 0  9994,2 53588  53.2183 319.8990 0001527 114.4648 245.6504 15.08845843 83424,6917.863,95.437,540.784,538.671,0.0
53588.0,STARLINK-4691,PAYLOAD,2024-03-01 22:09:19,15.08841298,0.0001411,53.2178,316.3286,109.4228,250.6916,7.3705e-05,8.85e-06,0.0,0 STARLINK-4691,1 53588U 22104A   24061.92313943  .00000885  00000-0  73705-4 0  9992,2 53588  53.2178 316.3286 0001411 109.4228 250.6916 15.08841298 84714,6917.876,95.437,540.718,538.765,0.0
53588.0,STARLINK-4691,PAYLOAD,2024-03-02 20:24:43,15.08837041,0.0001505,53.218,312.1645,112.9292,247.1859,-5.4672e-05,-1.158e-05,0.0,0 STARLINK-4691,1 53588U 22104A   24062.85050715 -.00001158  00000-0 -54672-4 0  9998,2 53588  53.2180 312.1645 0001505 112.9292 247.1859 15.08837041 83687,6917.889,95.438,540.796,538.713,0.0
53588.0,STARLINK-4691,PAYLOAD,2024-03-02 22:00:06,15.088364,0.0001456,53.2179,311.867,111.7253,248.3894,-5.9433e-05,-1.234e-05,0.0,0 STARLINK-4691,1 53588U 22104A   24062.91674757 -.00001234  00000-0 -59433-4 0  9998,2 53588  53.2179 311.8670 0001456 111.7253 248.3894 15.08836400 84869,6917.891,95.438,540.764,538.749,0.0
53588.0,STARLINK-4691,PAYLOAD,2024-03-03 09:07:48,15.08839377,0.0001438,53.2175,309.79,70.6285,289.4863,-3.3132e-05,-8.15e-06,0.0,0 STARLINK-4691,1 53588U 22104A   24063.38042751 -.00000815  00000-0 -33132-4 0  9995,2 53588  53.2175 309.7900 0001438  70.6285 289.4863 15.08839377 84931,6917.882,95.438,540.742,538.753,0.0
53588.0,STARLINK-4691,PAYLOAD,2024-03-03 20:15:30,15.08845286,0.000107,53.2165,307.7077,70.6054,289.5054,5.0003e-06,-2.08e-06,0.0,0 STARLINK-4691,1 53588U 22104A   24063.84410396 -.00000208  00000-0  50003-5 0  9992,2 53588  53.2165 307.7077 0001070  70.6054 289.5054 15.08845286 85007,6917.864,95.437,540.469,538.989,0.0
53588.0,STARLINK-4691,PAYLOAD,2024-03-04 02:37:02,15.08852954,0.0001615,53.2172,306.5165,123.1458,236.969,0.0001029,1.351e-05,0.0,0 STARLINK-4691,1 53588U 22104A   24064.10905196  .00001351  00000-0  10290-3 0  9990,2 53588  53.2172 306.5165 0001615 123.1458 236.9690 15.08852954 83872,6917.841,95.437,540.823,538.589,0.0
53588.0,STARLINK-4691,PAYLOAD,2024-03-04 08:58:34,15.08847226,0.0001212,53.2163,305.3258,77.9811,282.1317,0.00019063,2.748e-05,0.0,0 STARLINK-4691,1 53588U 22104A   24064.37401506  .00002748  00000-0  19063-3 0  9993,2 53588  53.2163 305.3258 0001212  77.9811 282.1317 15.08847226 85084,6917.858,95.437,540.562,538.885,0.0
53588.0,STARLINK-4691,PAYLOAD,2024-03-04 20:06:16,15.08855234,0.000135,53.2169,303.2448,105.6923,254.4218,9.3302e-06,-1.39e-06,0.0,0 STARLINK-4691,1 53588U 22104A   24064.83769428 -.00000139  00000-0  93302-5 0  9997,2 53588  53.2169 303.2448 0001350 105.6923 254.4218 15.08855234 83981,6917.834,95.437,540.633,538.765,0.0
53588.0,STARLINK-4691,PAYLOAD,2024-03-04 21:41:39,15.08846626,0.0001563,53.2176,302.9474,79.8508,280.2661,0.00018824,2.71e-05,0.0,0 STARLINK-4691,1 53588U 22104A   24064.90393408  .00002710  00000-0  18824-3 0  9996,2 53588  53.2176 302.9474 0001563  79.8508 280.2661 15.08846626 85167,6917.86,95.437,540.806,538.644,0.0
53588.0,STARLINK-4691,PAYLOAD,2024-03-05 00:52:25,15.0885138,0.0001349,53.2167,302.3548,77.064,283.0502,0.00018584,2.672e-05,0.0,0 STARLINK-4691,1 53588U 22104A   24065.03641089  .00002672  00000-0  18584-3 0  9992,2 53588  53.2167 302.3548 0001349  77.0640 283.0502 15.08851380 85182,6917.846,95.437,540.644,538.777,0.0
53588.0,STARLINK-4691,PAYLOAD,2024-03-05 19:57:04,15.08835797,0.00013,53.2164,298.7851,79.7004,280.4135,-1.7622e-05,-5.68e-06,0.0,0 STARLINK-4691,1 53588U 22104A   24065.83130723 -.00000568  00000-0 -17622-4 0  9995,2 53588  53.2164 298.7851 0001300  79.7004 280.4135 15.08835797 84135,6917.893,95.438,540.658,538.859,0.0
53588.0,STARLINK-4691,PAYLOAD,2024-03-05 23:07:51,15.0883379,0.0001453,53.2174,298.1903,79.2018,280.9138,-0.00013334,-2.409e-05,0.0,0 STARLINK-4691,1 53588U 22104A   24065.96379255 -.00002409  00000-0 -13334-3 0  9995,2 53588  53.2174 298.1903 0001453  79.2018 280.9138 15.08833790 85328,6917.899,95.438,540.77,538.759,0.0
53588.0,STARLINK-4691,PAYLOAD,2024-03-06 19:47:51,15.08844077,0.0001241,53.2178,294.3245,77.7852,282.3279,4.0903e-05,3.63e-06,0.0,0 STARLINK-4691,1 53588U 22104A   24066.82490024  .00000363  00000-0  40903-4 0  9997,2 53588  53.2178 294.3245 0001241  77.7852 282.3279 15.08844077 84289,6917.868,95.437,540.591,538.874,0.0
53588.0,STARLINK-4691,PAYLOAD,2024-03-07 08:30:55,15.08856315,0.0001394,53.2167,291.9498,77.162,282.9528,4.7305e-05,4.65e-06,0.0,0 STARLINK-4691,1 53588U 22104A   24067.35481156  .00000465  00000-0  47305-4 0  9998,2 53588  53.2167 291.9498 0001394  77.1620 282.9528 15.08856315 85536,6917.831,95.437,540.66,538.731,0.0
53588.0,STARLINK-4691,PAYLOAD,2024-03-08 00:24:48,15.08831654,0.0001431,53.2186,288.9714,92.5282,267.5874,0.00012868,1.76e-05,0.0,0 STARLINK-4691,1 53588U 22104A   24068.01723091  .00001760  00000-0  12868-3 0  9993,2 53588  53.2186 288.9714 0001431  92.5282 267.5874 15.08831654 84464,6917.906,95.438,540.761,538.781,0.0
53588.0,STARLINK-4691,PAYLOAD,2024-03-08 21:04:50,15.08827824,0.0001599,53.2175,285.106,100.8269,259.2903,9.7177e-05,1.258e-05,0.0,0 STARLINK-4691,1 53588U 22104A   24068.87835773  .00001258  00000-0  97177-4 0  9997,2 53588  53.2175 285.1060 0001599 100.8269 259.2903 15.08827824 85767,6917.918,95.438,540.889,538.676,0.0
53588.0,STARLINK-4691,PAYLOAD,2024-03-09 14:34:04,15.08831973,0.0001427,53.2183,281.8341,101.4359,258.6794,0.00011479,1.539e-05,0.0,0 STARLINK-4691,1 53588U 22104A   24069.60699631  .00001539  00000-0  11479-3 0  9992,2 53588  53.2183 281.8341 0001427 101.4359 258.6794 15.08831973 85871,6917.905,95.438,540.757,538.783,0.0
53588.0,STARLINK-4691,PAYLOAD,2024-03-10 00:06:22,15.08847971,0.0001887,53.2159,280.0506,105.6553,254.4648,-5.2496e-05,-1.124e-05,0.0,0 STARLINK-4691,1 53588U 22104A   24070.00443110 -.00001124  00000-0 -52496-4 0  9994,2 53588  53.2159 280.0506 0001887 105.6553 254.4648 15.08847971 84764,6917.856,95.437,541.026,538.416,0.0
53588.0,STARLINK-4691,PAYLOAD,2024-03-10 14:24:51,15.08827942,0.0001467,53.2188,277.3803,85.415,274.701,0.00036653,5.548e-05,0.0,0 STARLINK-4691,1 53588U 22104A   24070.60059330  .00005548  00000-0  36653-3 0  9995,2 53588  53.2188 277.3803 0001467  85.4150 274.7010 15.08827942 86022,6917.917,95.438,540.797,538.767,0.0
53588.0,STARLINK-4691,PAYLOAD,2024-03-10 19:11:01,15.08834664,0.0001062,53.2168,276.4849,76.8573,283.2538,8.6156e-05,1.083e-05,0.0,0 STARLINK-4691,1 53588U 22104A   24070.79931908  .00001083  00000-0  86156-4 0  9999,2 53588  53.2168 276.4849 0001062  76.8573 283.2538 15.08834664 84885,6917.897,95.438,540.496,539.027,0.0
53588.0,STARLINK-4691,PAYLOAD,2024-03-10 22:21:47,15.08838614,5.45e-05,53.2181,275.8951,76.0811,284.0242,7.1036e-05,8.43e-06,0.0,0 STARLINK-4691,1 53588U 22104A   24070.93179731  .00000843  00000-0  71036-4 0  9997,2 53588  53.2181 275.8951 0000545  76.0811 284.0242 15.08838614 86072,6917.885,95.438,540.127,539.373,0.0
53588.0,STARLINK-4691,PAYLOAD,2024-03-11 06:18:42,15.08842986,0.0002093,53.217,274.4036,96.0231,264.0999,0.00016525,2.343e-05,0.0,0 STARLINK-4691,1 53588U 22104A   24071.26299247  .00002343  00000-0  16525-3 0  9997,2 53588  53.2170 274.4036 0002093  96.0231 264.0999 15.08842986 84956,6917.871,95.437,541.184,538.288,0.0
53588.0,STARLINK-4691,PAYLOAD,2024-03-12 12:31:01,15.08850733,0.0002091,53.2177,268.7532,83.2782,276.8448,2.8971e-05,1.73e-06,0.0,0 STARLINK-4691,1 53588U 22104A   24072.52154869  .00000173  00000-0  28971-4 0  9995,2 53588  53.2177 268.7532 0002091  83.2782 276.8448 15.08850733 85148,6917.848,95.437,541.159,538.266,0.0
53588.0,STARLINK-4691,PAYLOAD,2024-03-13 12:21:47,15.08861906,0.0001279,53.2034,264.2909,98.8712,261.2424,-4.3491e-05,-9.8e-06,0.0,0 STARLINK-4691,1 53588U 22104A   24073.51513038 -.00000980  00000-0 -43491-4 0  9994,2 53588  53.2034 264.2909 0001279  98.8712 261.2424 15.08861906 85293,6917.813,95.436,540.563,538.794,0.0
53588.0,STARLINK-4691,PAYLOAD,2024-03-13 18:43:22,15.08823531,0.0001356,53.2106,263.1014,87.9333,272.1814,-3.1055e-05,-7.82e-06,0.0,0 STARLINK-4691,1 53588U 22104A   24073.78011996 -.00000782  00000-0 -31055-4 0  9992,2 53588  53.2106 263.1014 0001356  87.9333 272.1814 15.08823531 85333,6917.931,95.439,540.734,538.858,0.0
53588.0,STARLINK-4691,PAYLOAD,2024-03-13 21:54:08,15.08827717,0.0002706,53.2121,262.5077,99.3334,260.7964,-9.5256e-05,-1.804e-05,0.0,0 STARLINK-4691,1 53588U 22104A   24073.91259971 -.00001804  00000-0 -95256-4 0  9993,2 53588  53.2121 262.5077 0002706  99.3334 260.7964 15.08827717 86521,6917.918,95.438,541.655,537.911,0.0
53588.0,STARLINK-4691,PAYLOAD,2024-03-14 05:51:04,15.08834508,0.0001007,53.2143,261.0185,73.0182,287.092,-1.9473e-05,-5.98e-06,0.0,0 STARLINK-4691,1 53588U 22104A   24074.24379784 -.00000598  00000-0 -19473-4 0  9991,2 53588  53.2143 261.0185 0001007  73.0182 287.0920 15.08834508 86577,6917.897,95.438,540.459,539.066,0.0
53588.0,STARLINK-4691,PAYLOAD,2024-03-14 12:12:36,15.08842562,0.0001457,53.2135,259.8282,100.9505,259.1651,-0.00012366,-2.256e-05,0.0,0 STARLINK-4691,1 53588U 22104A   24074.50875452 -.00002256  00000-0 -12366-3 0  9999,2 53588  53.2135 259.8282 0001457 100.9505 259.1651 15.08842562 85444,6917.873,95.437,540.745,538.73,0.0
